{
  "type": "FeatureCollection",
  "features": [
    {
      "type": "Feature",
      "properties": {
        "norad_id": 31051,
        "name": "FENGYUN 1C DEB",
        "group": "fengyun-1c-debris",
        "lat": 57.14210813986418,
        "lon": -148.74460665537518,
        "alt_km": 840.4188571411605,
        "timestamp": "2025-12-12T18:57:44.410107+00:00",
        "meta_object_name": "FENGYUN 1C DEB",
        "meta_object_id": "1999-025BEV",
        "meta_epoch": "2025-11-29T08:36:57.509280",
        "meta_mean_motion": 14.03023318,
        "meta_eccentricity": 0.00528722,
        "meta_inclination": 98.8207,
        "meta_ra_of_asc_node": 4.3303,
        "meta_arg_of_pericenter": 172.6282,
        "meta_mean_anomaly": 187.5674,
        "meta_ephemeris_type": 0,
        "meta_classification_type": "U",
        "meta_norad_cat_id": 31051,
        "meta_element_set_no": 999,
        "meta_rev_at_epoch": 63631,
        "meta_bstar": 0.00023865273,
        "meta_mean_motion_dot": 3.33e-06,
        "meta_mean_motion_ddot": 0,
        "tle_line1": "1 31051U 99025BEV 25333.35899895  .00000333  00000+0  23865-3 0  9992",
        "tle_line2": "2 31051  98.8207   4.3303 0052872 172.6282 187.5674 14.03023318636313"
      },
      "geometry": {
        "type": "Point",
        "coordinates": [
          -148.74460665537518,
          57.14210813986418
        ]
      }
    },
    {
      "type": "Feature",
      "properties": {
        "norad_id": 31053,
        "name": "FENGYUN 1C DEB",
        "group": "fengyun-1c-debris",
        "lat": -13.293962866190444,
        "lon": 111.38857606988583,
        "alt_km": 1047.5740393543729,
        "timestamp": "2025-12-12T18:57:44.410117+00:00",
        "meta_object_name": "FENGYUN 1C DEB",
        "meta_object_id": "1999-025BEX",
        "meta_epoch": "2025-12-09T07:15:11.826144",
        "meta_mean_motion": 13.75848728,
        "meta_eccentricity": 0.0309376,
        "meta_inclination": 98.7939,
        "meta_ra_of_asc_node": 106.0672,
        "meta_arg_of_pericenter": 104.1614,
        "meta_mean_anomaly": 259.4116,
        "meta_ephemeris_type": 0,
        "meta_classification_type": "U",
        "meta_norad_cat_id": 31053,
        "meta_element_set_no": 999,
        "meta_rev_at_epoch": 93429,
        "meta_bstar": 0.0025997,
        "meta_mean_motion_dot": 3.538e-05,
        "meta_mean_motion_ddot": 0,
        "tle_line1": "1 31053U 99025BEX 25343.30222021  .00003538  00000+0  25997-2 0  9998",
        "tle_line2": "2 31053  98.7939 106.0672 0309376 104.1614 259.4116 13.75848728934294"
      },
      "geometry": {
        "type": "Point",
        "coordinates": [
          111.38857606988583,
          -13.293962866190444
        ]
      }
    },
    {
      "type": "Feature",
      "properties": {
        "norad_id": 31054,
        "name": "FENGYUN 1C DEB",
        "group": "fengyun-1c-debris",
        "lat": 40.605181516547795,
        "lon": -172.64643456041884,
        "alt_km": 841.4096509874198,
        "timestamp": "2025-12-12T18:57:44.410128+00:00",
        "meta_object_name": "FENGYUN 1C DEB",
        "meta_object_id": "1999-025BEY",
        "meta_epoch": "2025-12-11T12:25:11.597376",
        "meta_mean_motion": 14.12168848,
        "meta_eccentricity": 0.00106498,
        "meta_inclination": 98.6905,
        "meta_ra_of_asc_node": 358.5859,
        "meta_arg_of_pericenter": 123.6166,
        "meta_mean_anomaly": 29.0371,
        "meta_ephemeris_type": 0,
        "meta_classification_type": "U",
        "meta_norad_cat_id": 31054,
        "meta_element_set_no": 999,
        "meta_rev_at_epoch": 96746,
        "meta_bstar": 0.00024067879,
        "meta_mean_motion_dot": 4e-06,
        "meta_mean_motion_ddot": 0,
        "tle_line1": "1 31054U 99025BEY 25345.51749534  .00000400  00000+0  24068-3 0  9991",
        "tle_line2": "2 31054  98.6905 358.5859 0010649 123.6166  29.0371 14.12168848967467"
      },
      "geometry": {
        "type": "Point",
        "coordinates": [
          -172.64643456041884,
          40.605181516547795
        ]
      }
    },
    {
      "type": "Feature",
      "properties": {
        "norad_id": 31055,
        "name": "FENGYUN 1C DEB",
        "group": "fengyun-1c-debris",
        "lat": -77.5891393444057,
        "lon": 153.51821330813362,
        "alt_km": 848.3281382812502,
        "timestamp": "2025-12-12T18:57:44.410138+00:00",
        "meta_object_name": "FENGYUN 1C DEB",
        "meta_object_id": "1999-025BEZ",
        "meta_epoch": "2025-12-12T00:50:30.195744",
        "meta_mean_motion": 14.10375182,
        "meta_eccentricity": 0.0024003,
        "meta_inclination": 98.76,
        "meta_ra_of_asc_node": 17.2632,
        "meta_arg_of_pericenter": 274.0838,
        "meta_mean_anomaly": 115.7328,
        "meta_ephemeris_type": 0,
        "meta_classification_type": "U",
        "meta_norad_cat_id": 31055,
        "meta_element_set_no": 999,
        "meta_rev_at_epoch": 96112,
        "meta_bstar": 0.00050033,
        "meta_mean_motion_dot": 8.48e-06,
        "meta_mean_motion_ddot": 0,
        "tle_line1": "1 31055U 99025BEZ 25346.03507171  .00000848  00000+0  50033-3 0  9996",
        "tle_line2": "2 31055  98.7600  17.2632 0024003 274.0838 115.7328 14.10375182961126"
      },
      "geometry": {
        "type": "Point",
        "coordinates": [
          153.51821330813362,
          -77.5891393444057
        ]
      }
    },
    {
      "type": "Feature",
      "properties": {
        "norad_id": 31056,
        "name": "FENGYUN 1C DEB",
        "group": "fengyun-1c-debris",
        "lat": -44.12295362886569,
        "lon": 140.84063527662713,
        "alt_km": 859.9784542241669,
        "timestamp": "2025-12-12T18:57:44.410148+00:00",
        "meta_object_name": "FENGYUN 1C DEB",
        "meta_object_id": "1999-025BFA",
        "meta_epoch": "2025-12-12T04:36:53.055936",
        "meta_mean_motion": 14.14304493,
        "meta_eccentricity": 0.00254815,
        "meta_inclination": 98.6672,
        "meta_ra_of_asc_node": 328.7678,
        "meta_arg_of_pericenter": 344.5824,
        "meta_mean_anomaly": 78.2809,
        "meta_ephemeris_type": 0,
        "meta_classification_type": "U",
        "meta_norad_cat_id": 31056,
        "meta_element_set_no": 999,
        "meta_rev_at_epoch": 96810,
        "meta_bstar": 0.00057448403,
        "meta_mean_motion_dot": 1.058e-05,
        "meta_mean_motion_ddot": 0,
        "tle_line1": "1 31056U 99025BFA 25346.19228074  .00001058  00000+0  57448-3 0  9997",
        "tle_line2": "2 31056  98.6672 328.7678 0025481 344.5824  78.2809 14.14304493968107"
      },
      "geometry": {
        "type": "Point",
        "coordinates": [
          140.84063527662713,
          -44.12295362886569
        ]
      }
    },
    {
      "type": "Feature",
      "properties": {
        "norad_id": 31057,
        "name": "FENGYUN 1C DEB",
        "group": "fengyun-1c-debris",
        "lat": 53.1461229736694,
        "lon": -141.21139707153068,
        "alt_km": 682.1262901188957,
        "timestamp": "2025-12-12T18:57:44.410158+00:00",
        "meta_object_name": "FENGYUN 1C DEB",
        "meta_object_id": "1999-025BFB",
        "meta_epoch": "2025-12-07T08:31:09.738912",
        "meta_mean_motion": 14.79274467,
        "meta_eccentricity": 0.0137797,
        "meta_inclination": 99.2572,
        "meta_ra_of_asc_node": 19.9678,
        "meta_arg_of_pericenter": 268.7892,
        "meta_mean_anomaly": 89.7526,
        "meta_ephemeris_type": 0,
        "meta_classification_type": "U",
        "meta_norad_cat_id": 31057,
        "meta_element_set_no": 999,
        "meta_rev_at_epoch": 61873,
        "meta_bstar": 0.0014079461,
        "meta_mean_motion_dot": 0.00012236,
        "meta_mean_motion_ddot": 0,
        "tle_line1": "1 31057U 99025BFB 25341.35497383  .00012236  00000+0  14079-2 0  9994",
        "tle_line2": "2 31057  99.2572  19.9678 0137797 268.7892  89.7526 14.79274467618731"
      },
      "geometry": {
        "type": "Point",
        "coordinates": [
          -141.21139707153068,
          53.1461229736694
        ]
      }
    },
    {
      "type": "Feature",
      "properties": {
        "norad_id": 31058,
        "name": "FENGYUN 1C DEB",
        "group": "fengyun-1c-debris",
        "lat": -66.65325889594658,
        "lon": -40.92644143915019,
        "alt_km": 714.6012670568643,
        "timestamp": "2025-12-12T18:57:44.410168+00:00",
        "meta_object_name": "FENGYUN 1C DEB",
        "meta_object_id": "1999-025BFC",
        "meta_epoch": "2025-12-10T02:12:39.489408",
        "meta_mean_motion": 14.76251387,
        "meta_eccentricity": 0.0095157,
        "meta_inclination": 99.5664,
        "meta_ra_of_asc_node": 292.8837,
        "meta_arg_of_pericenter": 114.1252,
        "meta_mean_anomaly": 246.994,
        "meta_ephemeris_type": 0,
        "meta_classification_type": "U",
        "meta_norad_cat_id": 31058,
        "meta_element_set_no": 999,
        "meta_rev_at_epoch": 99510,
        "meta_bstar": 0.0016465587,
        "meta_mean_motion_dot": 0.00012229,
        "meta_mean_motion_ddot": 0,
        "tle_line1": "1 31058U 99025BFC 25344.09212372  .00012229  00000+0  16466-2 0  9996",
        "tle_line2": "2 31058  99.5664 292.8837 0095157 114.1252 246.9940 14.76251387995102"
      },
      "geometry": {
        "type": "Point",
        "coordinates": [
          -40.92644143915019,
          -66.65325889594658
        ]
      }
    }
  ]
}